[{"OBJECT_NAME":"STARLINK-2738","OBJECT_ID":"2021-044AG","EPOCH":"2026-03-09T18:53:39.417792","MEAN_MOTION":15.30207829,"ECCENTRICITY":0.00013237,"INCLINATION":53.1579,"RA_OF_ASC_NODE":103.5158,"ARG_OF_PERICENTER":95.9871,"MEAN_ANOMALY":264.128,"EPHEMERIS_TYPE":0,"CLASSIFICATION_TYPE":"U","NORAD_CAT_ID":48668,"ELEMENT_SET_NO":999,"REV_AT_EPOCH":26398,"BSTAR":5.8239615e-5,"MEAN_MOTION_DOT":1.366e-5,"MEAN_MOTION_DDOT":0},{"OBJECT_NAME":"KUIPER-00180","OBJECT_ID":"2026-030E","EPOCH":"2026-03-09T22:29:40.634304","MEAN_MOTION":15.31865817,"ECCENTRICITY":0.00157227,"INCLINATION":51.8823,"RA_OF_ASC_NODE":218.464,"ARG_OF_PERICENTER":75.5448,"MEAN_ANOMALY":284.728,"EPHEMERIS_TYPE":0,"CLASSIFICATION_TYPE":"U","NORAD_CAT_ID":67768,"ELEMENT_SET_NO":999,"REV_AT_EPOCH":512,"BSTAR":0.011360708,"MEAN_MOTION_DOT":0.00373574,"MEAN_MOTION_DDOT":0}]
